ONEWEB-0707             
1 61612U 24188U   25099.58463279  .00000615  00000+0  17261-2 0  9998
2 61612  87.8796 122.6901 0001441 109.5685 250.5598 13.10374518 26531
ONEWEB-0708             
1 61613U 24188V   25099.52650405  .00000745  00000+0  20965-2 0  9991
2 61613  87.8849 122.6726 0001840 118.7607 241.3705 13.10369040 26504
